{
"type": "FeatureCollection",
"name": "D01_HARV_C1_P1_v1",
"crs": { "type": "name", "properties": { "name": "urn:ogc:def:crs:OGC:1.3:CRS84" } },
"features": [
{ "type": "Feature", "properties": { "domain": "D01", "domainName": "Northeast", "siteName": "Harvard Forest & Quabbin Watershed NEON", "siteID": "HARV", "siteType": "Core", "sampleType": "Terrestrial", "priority": 1, "version": 1, "flightbxID": "D01_HARV_C1_P1_v1" }, "geometry": { "type": "Polygon", "coordinates": [ [ [ -72.148186994994148, 42.575097429900552 ], [ -72.147759713958692, 42.383731842869167 ], [ -72.281507955546829, 42.38363211809019 ], [ -72.28191287926677, 42.574915214181601 ], [ -72.148186994994148, 42.575097429900552 ] ] ] } }
]
}
