{
"type": "FeatureCollection",
"name": "D01_HOPB_C1_P2_v1",
"crs": { "type": "name", "properties": { "name": "urn:ogc:def:crs:OGC:1.3:CRS84" } },
"features": [
{ "type": "Feature", "properties": { "domain": "D01", "domainName": "Northeast", "siteName": "Lower Hop Brook NEON", "siteID": "HOPB", "siteType": "Core", "sampleType": "Aquatic", "priority": 2, "version": 1, "flightbxID": "D01_HOPB_C1_P2_v1" }, "geometry": { "type": "Polygon", "coordinates": [ [ [ -72.366346344402473, 42.46399317212007 ], [ -72.366346344402473, 42.51413445518034 ], [ -72.324122106935249, 42.51413445518034 ], [ -72.324122106935249, 42.46399317212007 ], [ -72.366346344402473, 42.46399317212007 ] ] ] } }
]
}
