{
"type": "FeatureCollection",
"name": "D02_SERC_R1_P1_v1",
"crs": { "type": "name", "properties": { "name": "urn:ogc:def:crs:OGC:1.3:CRS84" } },
"features": [
{ "type": "Feature", "properties": { "domain": "D02", "domainName": "Mid-Atlantic", "siteName": "Smithsonian Environmental Research Center NEON", "siteID": "SERC", "siteType": "Gradient", "sampleType": "Terrestrial", "priority": 1, "version": 1, "flightbxID": "D02_SERC_R1_P1_v1" }, "geometry": { "type": "Polygon", "coordinates": [ [ [ -76.621069303780018, 38.845040212412584 ], [ -76.621069303780018, 38.935119439318896 ], [ -76.50583053353779, 38.935119439318896 ], [ -76.50583053353779, 38.845040212412584 ], [ -76.621069303780018, 38.845040212412584 ] ] ] } }
]
}
