{
"type": "FeatureCollection",
"name": "D02_BLAN_R2_P1_v2",
"crs": { "type": "name", "properties": { "name": "urn:ogc:def:crs:OGC:1.3:CRS84" } },
"features": [
{ "type": "Feature", "properties": { "domain": "D02", "domainName": "Mid-Atlantic", "siteName": "Blandy Experimental Farm NEON", "siteID": "BLAN", "siteType": "Gradient", "sampleType": "Terrestrial", "priority": 1, "version": 2, "flightbxID": "D02_BLAN_R2_P1_v2" }, "geometry": { "type": "Polygon", "coordinates": [ [ [ -78.094960896389409, 39.041324308137519 ], [ -78.094960896389409, 39.145480003980367 ], [ -77.949637516211681, 39.145480003980367 ], [ -77.949637516211681, 39.041324308137519 ], [ -78.094960896389409, 39.041324308137519 ] ] ] } }
]
}
