{
"type": "FeatureCollection",
"name": "D02_SCBI_C1_P1_v1",
"crs": { "type": "name", "properties": { "name": "urn:ogc:def:crs:OGC:1.3:CRS84" } },
"features": [
{ "type": "Feature", "properties": { "domain": "D02", "domainName": "Mid-Atlantic", "siteName": "Smithsonian Conservation Biology Institute NEON", "siteID": "SCBI", "siteType": "Core", "sampleType": "Terrestrial", "priority": 1, "version": 1, "flightbxID": "D02_SCBI_C1_P1_v1" }, "geometry": { "type": "Polygon", "coordinates": [ [ [ -78.207109954872578, 38.82917960631363 ], [ -78.207109954872578, 38.919282489166335 ], [ -78.091866596254476, 38.919282489166335 ], [ -78.091866596254476, 38.82917960631363 ], [ -78.207109954872578, 38.82917960631363 ] ] ] } }
]
}
