{
"type": "FeatureCollection",
"name": "D03_OSBS_C1_P1_v1_duplicate1",
"crs": { "type": "name", "properties": { "name": "urn:ogc:def:crs:OGC:1.3:CRS84" } },
"features": [
{ "type": "Feature", "properties": { "domain": "D03", "domainName": "Southeast", "siteName": "Suggs Lake NEON", "siteID": "SUGG", "siteType": "Core", "sampleType": "Aquatic", "priority": 1, "version": 1, "flightbxID": "D03_OSBS_C1_P1_v1" }, "geometry": { "type": "Polygon", "coordinates": [ [ [ -81.951706557339435, 29.75737340645054 ], [ -81.951940983595534, 29.734257185056833 ], [ -81.936096389147622, 29.734370197419764 ], [ -81.936388910249661, 29.643884629451179 ], [ -81.971897916652779, 29.644024241263878 ], [ -81.972504544548144, 29.613002414639595 ], [ -82.03987693894851, 29.612689059685124 ], [ -82.039545418450359, 29.734388327889633 ], [ -81.97820137201029, 29.734460820990648 ], [ -81.978652178589527, 29.757571929699793 ], [ -81.951706557339435, 29.75737340645054 ] ] ] } }
]
}
