{
"type": "FeatureCollection",
"name": "D03_OSBS_C1_P2_v1",
"crs": { "type": "name", "properties": { "name": "urn:ogc:def:crs:OGC:1.3:CRS84" } },
"features": [
{ "type": "Feature", "properties": { "domain": "D03", "domainName": "Southeast", "siteName": "Ordway-Swisher Biological Station NEON", "siteID": "OSBS", "siteType": "Core", "sampleType": "Terrestrial", "priority": 2, "version": 1, "flightbxID": "D03_OSBS_C1_P2_v1" }, "geometry": { "type": "Polygon", "coordinates": [ [ [ -81.914906433051272, 29.644232158003092 ], [ -81.936162761416426, 29.64388622665922 ], [ -81.936388881471146, 29.643893405102233 ], [ -81.936274369926991, 29.679249219826772 ], [ -81.914772217211748, 29.679399412243583 ], [ -81.914906433051272, 29.644232158003092 ] ] ] } }
]
}
