{
"type": "FeatureCollection",
"name": "D03_JERC_R2_P1_v1",
"crs": { "type": "name", "properties": { "name": "urn:ogc:def:crs:OGC:1.3:CRS84" } },
"features": [
{ "type": "Feature", "properties": { "domain": "D03", "domainName": "Southeast", "siteName": "The Jones Center At Ichauway NEON", "siteID": "JERC", "siteType": "Gradient", "sampleType": "Terrestrial", "priority": 1, "version": 1, "flightbxID": "D03_JERC_R2_P1_v1" }, "geometry": { "type": "Polygon", "coordinates": [ [ [ -84.41839476547085, 31.158718487817225 ], [ -84.523563531895434, 31.158628692528225 ], [ -84.523886918863354, 31.327096707495798 ], [ -84.419642306375806, 31.327199010650588 ], [ -84.41839476547085, 31.158718487817225 ] ] ] } }
]
}
