{
"type": "FeatureCollection",
"name": "D03_DSNY_R1_P1_v1",
"crs": { "type": "name", "properties": { "name": "urn:ogc:def:crs:OGC:1.3:CRS84" } },
"features": [
{ "type": "Feature", "properties": { "domain": "D03", "domainName": "Southeast", "siteName": "Disney Wilderness Preserve NEON", "siteID": "DSNY", "siteType": "Gradient", "sampleType": "Terrestrial", "priority": 1, "version": 1, "flightbxID": "D03_DSNY_R1_P1_v1" }, "geometry": { "type": "Polygon", "coordinates": [ [ [ -81.391713191987208, 28.150017132442201 ], [ -81.391633416121067, 28.128979588306265 ], [ -81.370188101889312, 28.129039177836773 ], [ -81.369964898358091, 28.098247691817505 ], [ -81.370006444653598, 28.098247578502082 ], [ -81.369907777485366, 28.027609619375426 ], [ -81.413646289603719, 28.027484913039302 ], [ -81.437938262076614, 28.044128617839817 ], [ -81.438002378828628, 28.059951695844688 ], [ -81.493452877711661, 28.05977718377676 ], [ -81.493457940933183, 28.150012603422056 ], [ -81.391713191987208, 28.150017132442201 ] ] ] } }
]
}
