{
"type": "FeatureCollection",
"name": "D03_OSBS_C1_P2_v1_duplicate1",
"crs": { "type": "name", "properties": { "name": "urn:ogc:def:crs:OGC:1.3:CRS84" } },
"features": [
{ "type": "Feature", "properties": { "domain": "D03", "domainName": "Southeast", "siteName": "Ordway-Swisher Biological Station NEON", "siteID": "OSBS", "siteType": "Core", "sampleType": "Terrestrial", "priority": 2, "version": 1, "flightbxID": "D03_OSBS_C1_P2_v1" }, "geometry": { "type": "Polygon", "coordinates": [ [ [ -82.039582838624995, 29.720580117961049 ], [ -82.039760168290286, 29.655393339114255 ], [ -82.08261687406906, 29.655810242794018 ], [ -82.082630581639592, 29.720411496497206 ], [ -82.039582838624995, 29.720580117961049 ] ] ] } }
]
}
