{
"type": "FeatureCollection",
"name": "D04_GUIL_A2_P1_v1",
"crs": { "type": "name", "properties": { "name": "urn:ogc:def:crs:OGC:1.3:CRS84" } },
"features": [
{ "type": "Feature", "properties": { "domain": "D04", "domainName": "Atlantic Neotropical", "siteName": "Rio Yahuecas", "siteID": "GUIL", "siteType": "Gradient", "sampleType": "Aquatic", "priority": 1, "version": 1, "flightbxID": "D04_GUIL_A2_P1_v1" }, "geometry": { "type": "Polygon", "coordinates": [ [ [ -66.802765908978245, 18.132646478090805 ], [ -66.802765909877564, 18.182370228840398 ], [ -66.767795358644662, 18.182370228840398 ], [ -66.767795357745342, 18.132646478090805 ], [ -66.802765908978245, 18.132646478090805 ] ] ] } }
]
}
