{
"type": "FeatureCollection",
"name": "D04_LAJA_R1_P1_v6",
"crs": { "type": "name", "properties": { "name": "urn:ogc:def:crs:OGC:1.3:CRS84" } },
"features": [
{ "type": "Feature", "properties": { "domain": "D04", "domainName": "Atlantic Neotropical", "siteName": "Lajas Experimental Station NEON", "siteID": "LAJA", "siteType": "Gradient", "sampleType": "Terrestrial", "priority": 1, "version": 6, "flightbxID": "D04_LAJA_R1_P1_v6" }, "geometry": { "type": "Polygon", "coordinates": [ [ [ -66.943497514732371, 18.030203153866466 ], [ -66.962077796535027, 17.988050141446593 ], [ -66.99182639652264, 17.999941448091249 ], [ -66.991818157770922, 17.999960121755748 ], [ -67.078966454824979, 18.034666001403536 ], [ -67.06753060518912, 18.060548366823298 ], [ -67.125241195746867, 18.083500273639061 ], [ -67.106959719556357, 18.124940710028909 ], [ -67.049076786111868, 18.101919249118794 ], [ -67.060184472444291, 18.07672952970222 ], [ -66.97318970971304, 18.042083210806425 ], [ -66.973193753994963, 18.042074046645325 ], [ -66.943497514732371, 18.030203153866466 ] ] ] } }
]
}
