{
"type": "FeatureCollection",
"name": "D05_STEI_TREE_R1_P1_v2",
"crs": { "type": "name", "properties": { "name": "urn:ogc:def:crs:OGC:1.3:CRS84" } },
"features": [
{ "type": "Feature", "properties": { "domain": "D05", "domainName": "Great Lakes", "siteName": "Steigerwaldt-Chequamegon NEON", "siteID": "STEI", "siteType": "Gradient", "sampleType": "Terrestrial", "priority": 1, "version": 2, "flightbxID": "D05_STEI_TREE_R1_P1_v2" }, "geometry": { "type": "Polygon", "coordinates": [ [ [ -89.613596589729752, 45.447843152684072 ], [ -89.61354079716574, 45.550297691539299 ], [ -89.485485106730948, 45.550253003888088 ], [ -89.485540975737933, 45.447798534281162 ], [ -89.613596589729752, 45.447843152684072 ] ] ] } }
]
}
