{
"type": "FeatureCollection",
"name": "D05_LIRO_A1_P2_v1",
"crs": { "type": "name", "properties": { "name": "urn:ogc:def:crs:OGC:1.3:CRS84" } },
"features": [
{ "type": "Feature", "properties": { "domain": "D05", "domainName": "Great Lakes", "siteName": "Little Rock Lake NEON", "siteID": "LIRO", "siteType": "Gradient", "sampleType": "Aquatic", "priority": 2, "version": 1, "flightbxID": "D05_LIRO_A1_P2_v1" }, "geometry": { "type": "Polygon", "coordinates": [ [ [ -89.716378725311301, 45.987602676226174 ], [ -89.716382062720697, 46.015565976219136 ], [ -89.685835799400536, 46.01556383131981 ], [ -89.685847862997946, 45.987600193179162 ], [ -89.716378725311301, 45.987602676226174 ] ] ] } }
]
}
