{
"type": "FeatureCollection",
"name": "D06_KONZ_KONA_C1_P1_v3_duplicate2",
"crs": { "type": "name", "properties": { "name": "urn:ogc:def:crs:OGC:1.3:CRS84" } },
"features": [
{ "type": "Feature", "properties": { "domain": "D06", "domainName": "Prairie Peninsula", "siteName": "Kings Creek NEON", "siteID": "KING", "siteType": "Core", "sampleType": "Aquatic", "priority": 1, "version": 3, "flightbxID": "D06_KONZ_KONA_C1_P1_v3" }, "geometry": { "type": "Polygon", "coordinates": [ [ [ -96.576843602727763, 39.199976198926208 ], [ -96.576877526311819, 39.15157386984697 ], [ -96.548120939120622, 39.151561458209358 ], [ -96.548071945482832, 39.195812102142156 ], [ -96.548072879885524, 39.195812102142156 ], [ -96.548072879885524, 39.212170896860812 ], [ -96.52606286536934, 39.212170896860812 ], [ -96.52606286536934, 39.195812102142156 ], [ -96.526125428081002, 39.195812108437451 ], [ -96.526201702859908, 39.141886257064641 ], [ -96.48886407309277, 39.141879046245833 ], [ -96.488884727079437, 39.051803708037539 ], [ -96.604458468544635, 39.051819792534218 ], [ -96.604456253497688, 39.061489802752703 ], [ -96.654321039697606, 39.061496749168839 ], [ -96.654300346140474, 39.151571982155701 ], [ -96.619119520128095, 39.151579221753025 ], [ -96.619114599899888, 39.199976167449677 ], [ -96.619159276759149, 39.199976159355685 ], [ -96.619159276759149, 39.23983213117458 ], [ -96.619109271376374, 39.239832140167834 ], [ -96.619109270477054, 39.239839077590716 ], [ -96.593599183139588, 39.239833995483309 ], [ -96.576626411210043, 39.23983213117458 ], [ -96.576626411210043, 39.199976159355685 ], [ -96.576843602727763, 39.199976198926208 ] ] ] } }
]
}
