{
"type": "FeatureCollection",
"name": "D06_KONZ_KONA_C1_P1_v3",
"crs": { "type": "name", "properties": { "name": "urn:ogc:def:crs:OGC:1.3:CRS84" } },
"features": [
{ "type": "Feature", "properties": { "domain": "D06", "domainName": "Prairie Peninsula", "siteName": "Konza Prairie Agroecosystem NEON", "siteID": "KONA", "siteType": "Gradient", "sampleType": "Terrestiral", "priority": 1, "version": 3, "flightbxID": "D06_KONZ_KONA_C1_P1_v3" }, "geometry": { "type": "Polygon", "coordinates": [ [ [ -96.576843602727763, 39.199976198926208 ], [ -96.576877527211138, 39.15157386984697 ], [ -96.548120939120622, 39.151561458209358 ], [ -96.548071946382152, 39.195812102142156 ], [ -96.548072879885524, 39.195812102142156 ], [ -96.548072879885524, 39.212170896860812 ], [ -96.526062864469964, 39.212170896860812 ], [ -96.526062864469964, 39.195812102142156 ], [ -96.526125428081002, 39.195812108437451 ], [ -96.526201703759227, 39.141886257064641 ], [ -96.48886407309277, 39.141879046245833 ], [ -96.488884727079437, 39.051803708936859 ], [ -96.604458467645316, 39.051819791634898 ], [ -96.604456252598311, 39.061489802752703 ], [ -96.654321040596926, 39.061496748269519 ], [ -96.654300346140474, 39.151571982155701 ], [ -96.619119520128095, 39.151579222652401 ], [ -96.619114599000568, 39.199976167449677 ], [ -96.619159276759149, 39.199976159355685 ], [ -96.619159276759149, 39.239832130275261 ], [ -96.619109270477054, 39.239832139268515 ], [ -96.619109269577734, 39.239839076691396 ], [ -96.593599183139588, 39.239833994583989 ], [ -96.576626411210043, 39.239832130275261 ], [ -96.576626411210043, 39.199976159355685 ], [ -96.576843602727763, 39.199976198926208 ] ] ] } }
]
}
