{
"type": "FeatureCollection",
"name": "D07_GRSM_R1_P1_all_v1",
"crs": { "type": "name", "properties": { "name": "urn:ogc:def:crs:OGC:1.3:CRS84" } },
"features": [
{ "type": "Feature", "properties": { "domain": "D07", "domainName": "Appalachians & Cumberland Plateau", "siteName": "Great Smoky Mountains National Park NEON", "siteID": "GRSM", "siteType": "Gradient", "sampleType": "Terrestrial", "priority": 1, "version": 1, "flightbxID": "D07_GRSM_R1_P1_all_v1" }, "geometry": { "type": "Polygon", "coordinates": [ [ [ -83.413043346348104, 35.748174234730584 ], [ -83.413040803046101, 35.740736526924934 ], [ -83.412374172828265, 35.740736535018868 ], [ -83.393061878700166, 35.727431982528856 ], [ -83.393055873881337, 35.727472924475364 ], [ -83.361310911307442, 35.727460970596098 ], [ -83.346504693656243, 35.71990822154163 ], [ -83.3383289723036, 35.720925661962326 ], [ -83.338400114612625, 35.708949953303829 ], [ -83.338389560089126, 35.708949956901165 ], [ -83.338389560089126, 35.695256824194587 ], [ -83.338398168465005, 35.695256820597308 ], [ -83.338400150585812, 35.66345625162046 ], [ -83.352697737509914, 35.658087592857783 ], [ -83.35658815593024, 35.648022472395894 ], [ -83.367634803014084, 35.63760043438873 ], [ -83.373523968141512, 35.637671818617264 ], [ -83.377414387461215, 35.634388161192931 ], [ -83.387836427267018, 35.633031868945125 ], [ -83.393117163143359, 35.623210373074983 ], [ -83.393117163143359, 35.609041071815909 ], [ -83.423309556743789, 35.609041071815909 ], [ -83.423394001925374, 35.608618846807246 ], [ -83.444444946061367, 35.608618846807246 ], [ -83.461171384620684, 35.589324048222863 ], [ -83.461171526714622, 35.589324479001391 ], [ -83.493721867963359, 35.554789360320854 ], [ -83.50875896761562, 35.554789360320854 ], [ -83.50875896761562, 35.628060173942686 ], [ -83.533952232186607, 35.628064129190989 ], [ -83.533952682750339, 35.6280570595668 ], [ -83.614378465075845, 35.6280570595668 ], [ -83.633262462826167, 35.635744701655483 ], [ -83.637251628455033, 35.654999301139014 ], [ -83.646809924042145, 35.663536807204707 ], [ -83.64682059457914, 35.669479381674648 ], [ -83.650574843817651, 35.669479381674648 ], [ -83.650574843817651, 35.701028396677202 ], [ -83.534117650241058, 35.701057427012927 ], [ -83.534078964710659, 35.718191126647923 ], [ -83.444037627428656, 35.718176957721653 ], [ -83.442314883850372, 35.718176642956564 ], [ -83.442310717259716, 35.748174234730584 ], [ -83.413043346348104, 35.748174234730584 ] ] ] } }
]
}
