{
"type": "FeatureCollection",
"name": "D07_ORNL_C1_P1_v8",
"crs": { "type": "name", "properties": { "name": "urn:ogc:def:crs:OGC:1.3:CRS84" } },
"features": [
{ "type": "Feature", "properties": { "domain": "D07", "domainName": "Appalachians & Cumberland Plateau", "siteName": "Oak Ridge NEON", "siteID": "ORNL", "siteType": "Core", "sampleType": "Terrestrial", "priority": 1, "version": 8, "flightbxID": "D07_ORNL_C1_P1_v8" }, "geometry": { "type": "Polygon", "coordinates": [ [ [ -84.19407522199424, 35.982960561422544 ], [ -84.231646375091259, 35.895271259600918 ], [ -84.278720657144277, 35.87434439586815 ], [ -84.292139809312744, 35.874319225451927 ], [ -84.37755736505693, 35.901725554892039 ], [ -84.382905994866462, 35.903439061463587 ], [ -84.382905994866462, 35.903439918523986 ], [ -84.431781153290103, 35.919091323642135 ], [ -84.43178210657868, 35.919090719293138 ], [ -84.434839852592575, 35.920069965217067 ], [ -84.438383664273147, 35.921204745571231 ], [ -84.438383664273147, 35.937073451025924 ], [ -84.353719702049148, 35.988235937298896 ], [ -84.346828966957446, 35.992644200969949 ], [ -84.278722946835614, 35.984671468933698 ], [ -84.278723913614101, 35.968654108015187 ], [ -84.20933872948649, 35.999415908087997 ], [ -84.19407522199424, 35.991445190548404 ], [ -84.19407522199424, 35.982960561422544 ] ] ] } }
]
}
