{
"type": "FeatureCollection",
"name": "D07_GRSM_R1_P2_all_v1",
"crs": { "type": "name", "properties": { "name": "urn:ogc:def:crs:OGC:1.3:CRS84" } },
"features": [
{ "type": "Feature", "properties": { "domain": "D07", "domainName": "Appalachians & Cumberland Plateau", "siteName": "Great Smoky Mountains National Park NEON", "siteID": "GRSM", "siteType": "Gradient", "sampleType": "Terrestrial", "priority": 2, "version": 1, "flightbxID": "D07_GRSM_R1_P2_all_v1" }, "geometry": { "type": "Polygon", "coordinates": [ [ [ -83.298410899128783, 35.721645809442123 ], [ -83.285511046425768, 35.712932750785058 ], [ -83.276684833311833, 35.714177474092708 ], [ -83.273629606318082, 35.713272221350337 ], [ -83.261861319767888, 35.715422196501095 ], [ -83.254053515651833, 35.715422196501095 ], [ -83.25159412011044, 35.708995404485279 ], [ -83.253935958080831, 35.706338991171151 ], [ -83.253935958080831, 35.695608477068674 ], [ -83.25931869223956, 35.690190790493716 ], [ -83.269874440663386, 35.684982822013637 ], [ -83.273684298103547, 35.678656362723132 ], [ -83.289471527960586, 35.672083222022081 ], [ -83.293092538930068, 35.659749153294854 ], [ -83.301692440432248, 35.655109734226755 ], [ -83.31266862959626, 35.653865010919105 ], [ -83.321494843609571, 35.661785972190046 ], [ -83.338645223996309, 35.663364227794489 ], [ -83.338400150585812, 35.66345625162046 ], [ -83.338398168465005, 35.695256820597308 ], [ -83.338389560089126, 35.695256824194587 ], [ -83.338389560089126, 35.708949956901165 ], [ -83.338400114612625, 35.708949953303829 ], [ -83.338328999283476, 35.720921070888494 ], [ -83.328736865548535, 35.722437905029608 ], [ -83.311876532210135, 35.723569471182429 ], [ -83.30282400658507, 35.722551060385854 ], [ -83.298410899128783, 35.721645809442123 ] ] ] } }
]
}
