{
"type": "FeatureCollection",
"name": "D08_TALL_C1_P1_v1",
"crs": { "type": "name", "properties": { "name": "urn:ogc:def:crs:OGC:1.3:CRS84" } },
"features": [
{ "type": "Feature", "properties": { "domain": "D08", "domainName": "Ozarks Complex", "siteName": "Talladega National Forest NEON", "siteID": "TALL", "siteType": "Core", "sampleType": "Terrestrial", "priority": 1, "version": 1, "flightbxID": "D08_TALL_C1_P1_v1" }, "geometry": { "type": "Polygon", "coordinates": [ [ [ -87.364025764089149, 32.984039790548422 ], [ -87.364509772091367, 32.873393303749879 ], [ -87.4709363308707, 32.873232013614938 ], [ -87.470960092038581, 32.983876383393294 ], [ -87.364025764089149, 32.984039790548422 ] ] ] } }
]
}
