{
"type": "FeatureCollection",
"name": "D08_DELA_R1_P1_v1_duplicate1",
"crs": { "type": "name", "properties": { "name": "urn:ogc:def:crs:OGC:1.3:CRS84" } },
"features": [
{ "type": "Feature", "properties": { "domain": "D08", "domainName": "Ozarks Complex", "siteName": "Black Warrior River NEON", "siteID": "BLWA", "siteType": "Gradient", "sampleType": "Aquatic", "priority": 1, "version": 1, "flightbxID": "D08_DELA_R1_P1_v1" }, "geometry": { "type": "Polygon", "coordinates": [ [ [ -87.857161821150783, 32.50217662203471 ], [ -87.857231233151083, 32.599621640115515 ], [ -87.750777157606535, 32.599567067041392 ], [ -87.750716367472023, 32.50212193834318 ], [ -87.857161821150783, 32.50217662203471 ] ] ] } }
]
}
