{
"type": "FeatureCollection",
"name": "D08_LENO_R2_P1_v1_duplicate1",
"crs": { "type": "name", "properties": { "name": "urn:ogc:def:crs:OGC:1.3:CRS84" } },
"features": [
{ "type": "Feature", "properties": { "domain": "D08", "domainName": "Ozarks Complex", "siteName": "Lower Tombigbee River NEON", "siteID": "TOMB", "siteType": "Gradient", "sampleType": "Aquatic", "priority": 1, "version": 1, "flightbxID": "D08_LENO_R2_P1_v1" }, "geometry": { "type": "Polygon", "coordinates": [ [ [ -88.245323633922851, 31.787337946179548 ], [ -88.245353367533767, 31.877521602254149 ], [ -88.1397380177782, 31.877547051462329 ], [ -88.139708198731114, 31.787363328837387 ], [ -88.245323633922851, 31.787337946179548 ] ] ] } }
]
}
