{
"type": "FeatureCollection",
"name": "D09_WOOD_DCFS_C1_P1_v2",
"crs": { "type": "name", "properties": { "name": "urn:ogc:def:crs:OGC:1.3:CRS84" } },
"features": [
{ "type": "Feature", "properties": { "domain": "D09", "domainName": "Northern Plains", "siteName": "Chase Lake National Wildlife Refuge NEON", "siteID": "WOOD", "siteType": "Core", "sampleType": "Terrestrial", "priority": 1, "version": 2, "flightbxID": "D09_WOOD_DCFS_C1_P1_v2" }, "geometry": { "type": "Polygon", "coordinates": [ [ [ -99.173988778606827, 47.232435007740094 ], [ -99.173267408039806, 47.232435030223314 ], [ -99.170656712108496, 47.232438947699848 ], [ -99.170656700417169, 47.232435076089075 ], [ -99.165942262033354, 47.232435007740094 ], [ -99.165942262033354, 47.215516520200026 ], [ -99.079945133803278, 47.215528831112863 ], [ -99.079917724957511, 47.178432606393812 ], [ -99.032952803992259, 47.178409778729247 ], [ -99.032952803992259, 47.107338209989905 ], [ -99.18734575657362, 47.107340863010052 ], [ -99.187341803123957, 47.08942452872725 ], [ -99.319130797428045, 47.089410831049349 ], [ -99.31915091091804, 47.179360306384581 ], [ -99.26214906255143, 47.17938484457261 ], [ -99.262409716834497, 47.232265559793007 ], [ -99.173988778606827, 47.232433937538758 ], [ -99.173988778606827, 47.232435007740094 ] ] ] } }
]
}
