{
"type": "FeatureCollection",
"name": "D10_ARIK_A1_P2_v2",
"crs": { "type": "name", "properties": { "name": "urn:ogc:def:crs:OGC:1.3:CRS84" } },
"features": [
{ "type": "Feature", "properties": { "domain": "D10", "domainName": "Central Plains", "siteName": "Arikaree River NEON", "siteID": "ARIK", "siteType": "Core", "sampleType": "Aquatic", "priority": 2, "version": 2, "flightbxID": "D10_ARIK_A1_P2_v2" }, "geometry": { "type": "Polygon", "coordinates": [ [ [ -102.595879395767099, 39.67563823861974 ], [ -102.595879395767099, 39.80220892306113 ], [ -102.44003529242741, 39.80220892306113 ], [ -102.44003529242741, 39.67563823861974 ], [ -102.595879395767099, 39.67563823861974 ] ] ] } }
]
}
