{
"type": "FeatureCollection",
"name": "D10_RMNP_R2_P1_v1",
"crs": { "type": "name", "properties": { "name": "urn:ogc:def:crs:OGC:1.3:CRS84" } },
"features": [
{ "type": "Feature", "properties": { "domain": "D10", "domainName": "Central Plains", "siteName": "Rocky Mountains NEON", "siteID": "RMNP", "siteType": "Gradient", "sampleType": "Terrestrial", "priority": 1, "version": 1, "flightbxID": "D10_RMNP_R2_P1_v1" }, "geometry": { "type": "Polygon", "coordinates": [ [ [ -105.569627467922714, 40.143715776654574 ], [ -105.569580307117121, 40.294109016278185 ], [ -105.451566556043474, 40.294048977982641 ], [ -105.451613568459834, 40.143655847177797 ], [ -105.569627467922714, 40.143715776654574 ] ] ] } }
]
}
