{
"type": "FeatureCollection",
"name": "D11_CLBJ_C1_P1_v2",
"crs": { "type": "name", "properties": { "name": "urn:ogc:def:crs:OGC:1.3:CRS84" } },
"features": [
{ "type": "Feature", "properties": { "domain": "D11", "domainName": "Southern Plains", "siteName": "Lyndon B. Johnson National Grassland NEON", "siteID": "CLBJ", "siteType": "Core", "sampleType": "Terrestrial", "priority": 1, "version": 2, "flightbxID": "D11_CLBJ_C1_P1_v2" }, "geometry": { "type": "Polygon", "coordinates": [ [ [ -97.668853201761408, 33.317925519113942 ], [ -97.668871969855445, 33.421562964108773 ], [ -97.548100639963877, 33.421632865343952 ], [ -97.548100348581329, 33.317995805261887 ], [ -97.668853201761408, 33.317925519113942 ] ] ] } }
]
}
