{
"type": "FeatureCollection",
"name": "D11_OAES_R1_P1_v2",
"crs": { "type": "name", "properties": { "name": "urn:ogc:def:crs:OGC:1.3:CRS84" } },
"features": [
{ "type": "Feature", "properties": { "domain": "D11", "domainName": "Southern Plains", "siteName": "Marvin Klemme Range Research Station NEON", "siteID": "OAES", "siteType": "Gradient", "sampleType": "Terrestrial", "priority": 1, "version": 2, "flightbxID": "D11_OAES_R1_P1_v2" }, "geometry": { "type": "Polygon", "coordinates": [ [ [ -99.17812624266594, 35.295848164740505 ], [ -99.178245757176569, 35.431721109438968 ], [ -99.022697961113408, 35.431769721761327 ], [ -99.02266585867028, 35.295896481183661 ], [ -99.17812624266594, 35.295848164740505 ] ] ] } }
]
}
