{
"type": "FeatureCollection",
"name": "D12_YELL_C1_P1_v2_duplicate1",
"crs": { "type": "name", "properties": { "name": "urn:ogc:def:crs:OGC:1.3:CRS84" } },
"features": [
{ "type": "Feature", "properties": { "domain": "D12", "domainName": "Northern Rockies", "siteName": "Blacktail Deer Creek NEON", "siteID": "BLDE", "siteType": "Core", "sampleType": "Aquatic", "priority": 1, "version": 2, "flightbxID": "D12_YELL_C1_P1_v2" }, "geometry": { "type": "Polygon", "coordinates": [ [ [ -110.376418526294287, 44.947604917523051 ], [ -110.376436392361484, 44.89054285639105 ], [ -110.424358195639854, 44.890794462526401 ], [ -110.456442977718666, 44.918844076506332 ], [ -110.487643801363902, 44.918987829728451 ], [ -110.487638678786709, 44.894378376180327 ], [ -110.48753329812854, 44.893650459398486 ], [ -110.566299109131023, 44.855651111547786 ], [ -110.582162482464923, 44.855923172918153 ], [ -110.602404777966399, 44.872390325073582 ], [ -110.602256223227471, 44.893953492755543 ], [ -110.614309349711846, 44.893952231896492 ], [ -110.61431490036955, 44.920761552662725 ], [ -110.663505600016094, 44.920919397468822 ], [ -110.663345163344218, 44.948385341620565 ], [ -110.614327847107859, 44.983292429014227 ], [ -110.614327980208543, 44.983936523849366 ], [ -110.487657323672693, 44.983949799742049 ], [ -110.487657274209596, 44.983715143257768 ], [ -110.487631554303448, 44.983715127969162 ], [ -110.376418526294287, 44.947604917523051 ] ] ] } }
]
}
