{
"type": "FeatureCollection",
"name": "D13_MOAB_R1_P1_v2",
"crs": { "type": "name", "properties": { "name": "urn:ogc:def:crs:OGC:1.3:CRS84" } },
"features": [
{ "type": "Feature", "properties": { "domain": "D13", "domainName": "Southern Rockies & Colorado Plateau", "siteName": "Moab NEON", "siteID": "MOAB", "siteType": "Gradient", "sampleType": "Terrestrial", "priority": 1, "version": 2, "flightbxID": "D13_MOAB_R1_P1_v2" }, "geometry": { "type": "Polygon", "coordinates": [ [ [ -109.445379116086713, 38.203285260997234 ], [ -109.445379116086713, 38.293374392212286 ], [ -109.331160884453197, 38.293374392212286 ], [ -109.331160884453197, 38.203285260997234 ], [ -109.445379116086713, 38.203285260997234 ] ] ] } }
]
}
