{
"type": "FeatureCollection",
"name": "D14_SRER_C1_P3_v3",
"crs": { "type": "name", "properties": { "name": "urn:ogc:def:crs:OGC:1.3:CRS84" } },
"features": [
{ "type": "Feature", "properties": { "domain": "D14", "domainName": "Desert Southwest", "siteName": "Santa Rita Experimental Range NEON", "siteID": "SRER", "siteType": "Core", "sampleType": "Terrestrial", "priority": 3, "version": 3, "flightbxID": "D14_SRER_C1_P3_v3" }, "geometry": { "type": "Polygon", "coordinates": [ [ [ -110.839496708668889, 31.719684706663827 ], [ -110.873522999669262, 31.719684706663827 ], [ -110.952483827437788, 31.789717800579638 ], [ -110.740820459911333, 31.789458451222799 ], [ -110.740820459911333, 31.78904599562361 ], [ -110.830597524010955, 31.719684706663827 ], [ -110.839496708668889, 31.719684706663827 ] ] ] } }
]
}
