{
"type": "FeatureCollection",
"name": "D14_JORN_R1_P1_v3",
"crs": { "type": "name", "properties": { "name": "urn:ogc:def:crs:OGC:1.3:CRS84" } },
"features": [
{ "type": "Feature", "properties": { "domain": "D14", "domainName": "Desert Southwest", "siteName": "Jornada Experimental Range NEON", "siteID": "JORN", "siteType": "Gradient", "sampleType": "Terrestrial", "priority": 1, "version": 3, "flightbxID": "D14_JORN_R1_P1_v3" }, "geometry": { "type": "Polygon", "coordinates": [ [ [ -106.74039440987832, 32.618146849716538 ], [ -106.746405389999609, 32.531943145646608 ], [ -106.804908327956923, 32.531773738169306 ], [ -106.825305124559748, 32.545523990849347 ], [ -106.881848509461236, 32.546567268988269 ], [ -106.882586029276695, 32.546567127793651 ], [ -106.882589188618965, 32.558156229363135 ], [ -106.882693445116104, 32.558156195188644 ], [ -106.882681028981779, 32.647725594361134 ], [ -106.882681546995229, 32.647725594361134 ], [ -106.882706182310756, 32.718352759742743 ], [ -106.802512265852101, 32.680603980201909 ], [ -106.802530189476329, 32.64833055669942 ], [ -106.776169211128263, 32.648319511142347 ], [ -106.776169215624918, 32.648290059021406 ], [ -106.760292824505711, 32.648356948404285 ], [ -106.74039440987832, 32.618146849716538 ] ] ] } }
]
}
