{
"type": "FeatureCollection",
"name": "D14_SRER_C1_P2_v3",
"crs": { "type": "name", "properties": { "name": "urn:ogc:def:crs:OGC:1.3:CRS84" } },
"features": [
{ "type": "Feature", "properties": { "domain": "D14", "domainName": "Desert Southwest", "siteName": "Santa Rita Experimental Range NEON", "siteID": "SRER", "siteType": "Core", "sampleType": "Terrestrial", "priority": 2, "version": 3, "flightbxID": "D14_SRER_C1_P2_v3" }, "geometry": { "type": "Polygon", "coordinates": [ [ [ -110.756524902949252, 31.921748534482163 ], [ -110.756524902949252, 31.809985252108106 ], [ -110.740820459911333, 31.809985252108106 ], [ -110.740820459911333, 31.789458451222799 ], [ -110.821784127232604, 31.789557655290366 ], [ -110.821529682815367, 31.921748534482163 ], [ -110.756524902949252, 31.921748534482163 ] ] ] } }
]
}
