{
"type": "FeatureCollection",
"name": "D15_REDB_A1_P1_v1",
"crs": { "type": "name", "properties": { "name": "urn:ogc:def:crs:OGC:1.3:CRS84" } },
"features": [
{ "type": "Feature", "properties": { "domain": "D15", "domainName": "Great Basin", "siteName": "Red Butte Creek NEON", "siteID": "REDB", "siteType": "Core", "sampleType": "Aquatic", "priority": 1, "version": 1, "flightbxID": "D15_REDB_A1_P1_v1" }, "geometry": { "type": "Polygon", "coordinates": [ [ [ -111.741457236502583, 40.802244125085849 ], [ -111.790369177476691, 40.772883970415421 ], [ -111.804797269609423, 40.772880911797927 ], [ -111.804797269609423, 40.824530288422125 ], [ -111.74145731024754, 40.824530288422125 ], [ -111.741457236502583, 40.802244125085849 ] ] ] } }
]
}
