{
"type": "FeatureCollection",
"name": "D16_WREF_C1_P1_v3_duplicate1",
"crs": { "type": "name", "properties": { "name": "urn:ogc:def:crs:OGC:1.3:CRS84" } },
"features": [
{ "type": "Feature", "properties": { "domain": "D16", "domainName": "Pacific Northwest", "siteName": "Wind River Experimental Forest NEON", "siteID": "WREF", "siteType": "Core", "sampleType": "Terrestrial", "priority": 1, "version": 3, "flightbxID": "D16_WREF_C1_P1_v3" }, "geometry": { "type": "Polygon", "coordinates": [ [ [ -121.783319977488873, 45.857864939542139 ], [ -121.783319977488873, 45.822287677675661 ], [ -121.872134804671362, 45.822307370279759 ], [ -121.872134815463312, 45.857884631246975 ], [ -121.783319977488873, 45.857864939542139 ] ] ] } }
]
}
