{
"type": "FeatureCollection",
"name": "D16_WREF_C1_P1_v3",
"crs": { "type": "name", "properties": { "name": "urn:ogc:def:crs:OGC:1.3:CRS84" } },
"features": [
{ "type": "Feature", "properties": { "domain": "D16", "domainName": "Pacific Northwest", "siteName": "Wind River Experimental Forest NEON", "siteID": "WREF", "siteType": "Core", "sampleType": "Terrestrial", "priority": 1, "version": 3, "flightbxID": "D16_WREF_C1_P1_v3" }, "geometry": { "type": "Polygon", "coordinates": [ [ [ -121.921204826975043, 45.773967387174025 ], [ -122.049955299319038, 45.773967387174025 ], [ -122.049955299319038, 45.891400278822175 ], [ -121.921204826975043, 45.891400278822175 ], [ -121.921204826975043, 45.773967387174025 ] ] ] } }
]
}
