{
"type": "FeatureCollection",
"name": "D16_ABBY_R2_P1_v1",
"crs": { "type": "name", "properties": { "name": "urn:ogc:def:crs:OGC:1.3:CRS84" } },
"features": [
{ "type": "Feature", "properties": { "domain": "D16", "domainName": "Pacific Northwest", "siteName": "Abby Road NEON", "siteID": "ABBY", "siteType": "Gradient", "sampleType": "Terrestrial", "priority": 1, "version": 1, "flightbxID": "D16_ABBY_R2_P1_v1" }, "geometry": { "type": "Polygon", "coordinates": [ [ [ -122.393800283849259, 45.710164636776426 ], [ -122.393924809420298, 45.807355094426555 ], [ -122.238805529171202, 45.807240414707906 ], [ -122.238700973197581, 45.710049903997401 ], [ -122.393800283849259, 45.710164636776426 ] ] ] } }
]
}
