{
"type": "FeatureCollection",
"name": "D16_WREF_C1_P2_v2",
"crs": { "type": "name", "properties": { "name": "urn:ogc:def:crs:OGC:1.3:CRS84" } },
"features": [
{ "type": "Feature", "properties": { "domain": "D16", "domainName": "Pacific Northwest", "siteName": "Wind River Experimental Forest NEON", "siteID": "WREF", "siteType": "Core", "sampleType": "Terrestrial", "priority": 2, "version": 2, "flightbxID": "D16_WREF_C1_P2_v2" }, "geometry": { "type": "Polygon", "coordinates": [ [ [ -121.872134805570681, 45.822307370279759 ], [ -121.921260715767289, 45.822288605783058 ], [ -121.921260700478683, 45.857865867649537 ], [ -121.872134815463312, 45.857884630347598 ], [ -121.872134805570681, 45.822307370279759 ] ] ] } }
]
}
