{
"type": "FeatureCollection",
"name": "D17_SOAP_R1_P1_v6",
"crs": { "type": "name", "properties": { "name": "urn:ogc:def:crs:OGC:1.3:CRS84" } },
"features": [
{ "type": "Feature", "properties": { "domain": "D17", "domainName": "Pacific Southwest", "siteName": "Soaproot Saddle NEON", "siteID": "SOAP", "siteType": "Gradient", "sampleType": "Terrestrial", "priority": 1, "version": 6, "flightbxID": "D17_SOAP_R1_P1_v6" }, "geometry": { "type": "Polygon", "coordinates": [ [ [ -119.291946445728456, 37.014302370650057 ], [ -119.2919169864129, 37.104287531354601 ], [ -119.176731670479626, 37.104260288884689 ], [ -119.176761070439511, 37.014275070623114 ], [ -119.291946445728456, 37.014302370650057 ] ] ] } }
]
}
