{
"type": "FeatureCollection",
"name": "D17_TEAK_R2_P3_v3",
"crs": { "type": "name", "properties": { "name": "urn:ogc:def:crs:OGC:1.3:CRS84" } },
"features": [
{ "type": "Feature", "properties": { "domain": "D17", "domainName": "Pacific Southwest", "siteName": "Lower Teakettle NEON", "siteID": "TEAK", "siteType": "Gradient", "sampleType": "Terrestrial", "priority": 3, "version": 3, "flightbxID": "D17_TEAK_R2_P3_v3" }, "geometry": { "type": "Polygon", "coordinates": [ [ [ -119.038969657624932, 37.099355150513418 ], [ -119.03905664610852, 37.042736609598194 ], [ -119.096201678422119, 37.042779853826573 ], [ -119.096203320596601, 37.099338859171041 ], [ -119.038969657624932, 37.099355150513418 ] ] ] } }
]
}
