{
"type": "FeatureCollection",
"name": "D17_SOAP_R1_P3_v1",
"crs": { "type": "name", "properties": { "name": "urn:ogc:def:crs:OGC:1.3:CRS84" } },
"features": [
{ "type": "Feature", "properties": { "domain": "D17", "domainName": "Pacific Southwest", "siteName": "Soaproot Saddle NEON", "siteID": "SOAP", "siteType": "Gradient", "sampleType": "Terrestrial", "priority": 3, "version": 1, "flightbxID": "D17_SOAP_R1_P3_v1" }, "geometry": { "type": "Polygon", "coordinates": [ [ [ -119.31839032421118, 36.988316859404335 ], [ -119.318387945486336, 37.014182628609262 ], [ -119.205923979807039, 37.014123292689533 ], [ -119.205964489176381, 36.988256259028219 ], [ -119.31839032421118, 36.988316859404335 ] ] ] } }
]
}
