{
"type": "FeatureCollection",
"name": "D17_TEAK_R2_P1_v3_duplicate1",
"crs": { "type": "name", "properties": { "name": "urn:ogc:def:crs:OGC:1.3:CRS84" } },
"features": [
{ "type": "Feature", "properties": { "domain": "D17", "domainName": "Pacific Southwest", "siteName": "Teakettle Creek - Watershed 2 NEON", "siteID": "TECR", "siteType": "Gradient", "sampleType": "Aquatic", "priority": 1, "version": 3, "flightbxID": "D17_TEAK_R2_P1_v3" }, "geometry": { "type": "Polygon", "coordinates": [ [ [ -118.971514064512746, 37.0426499772488 ], [ -118.971515610459051, 36.951491012512065 ], [ -119.096203320596601, 36.951491012512065 ], [ -119.096201678422119, 37.042779853826573 ], [ -118.971514064512746, 37.0426499772488 ] ] ] } }
]
}
