{
"type": "FeatureCollection",
"name": "D17_SOAP_R1_P2_v2",
"crs": { "type": "name", "properties": { "name": "urn:ogc:def:crs:OGC:1.3:CRS84" } },
"features": [
{ "type": "Feature", "properties": { "domain": "D17", "domainName": "Pacific Southwest", "siteName": "Soaproot Saddle NEON", "siteID": "SOAP", "siteType": "Gradient", "sampleType": "Terrestrial", "priority": 2, "version": 2, "flightbxID": "D17_SOAP_R1_P2_v2" }, "geometry": { "type": "Polygon", "coordinates": [ [ [ -119.32505763453679, 37.014172146032024 ], [ -119.325059847785099, 37.087159655773348 ], [ -119.291921751956579, 37.087156214941103 ], [ -119.291951289513747, 37.014167621508477 ], [ -119.32505763453679, 37.014172146032024 ] ] ] } }
]
}
