{
"type": "FeatureCollection",
"name": "D18_BARR_R1_P1_v2",
"crs": { "type": "name", "properties": { "name": "urn:ogc:def:crs:OGC:1.3:CRS84" } },
"features": [
{ "type": "Feature", "properties": { "domain": "D18", "domainName": "Tundra", "siteName": "Utqiagvik NEON", "siteID": "BARR", "siteType": "Gradient", "sampleType": "Terrestrial", "priority": 1, "version": 2, "flightbxID": "D18_BARR_R1_P1_v2" }, "geometry": { "type": "Polygon", "coordinates": [ [ [ -156.291470074232336, 71.347243630959042 ], [ -156.290626660241941, 71.222582174929016 ], [ -156.674468488363487, 71.222679834848918 ], [ -156.674651544055621, 71.264677340717753 ], [ -156.674946831493202, 71.332645154677891 ], [ -156.674946904338839, 71.332661976624308 ], [ -156.674925226915917, 71.332651793523553 ], [ -156.674871503707607, 71.332626557456308 ], [ -156.671565738981172, 71.33360652734001 ], [ -156.624580048015787, 71.347518069255614 ], [ -156.624526021733686, 71.347518071953573 ], [ -156.476337558764413, 71.397233278179726 ], [ -156.29125756551997, 71.360633265355546 ], [ -156.291470074232336, 71.347243630959042 ] ] ] } }
]
}
