{
"type": "FeatureCollection",
"name": "D18_TOOL_C1_P1_v3_duplicate1",
"crs": { "type": "name", "properties": { "name": "urn:ogc:def:crs:OGC:1.3:CRS84" } },
"features": [
{ "type": "Feature", "properties": { "domain": "D18", "domainName": "Tundra", "siteName": "Toolik Lake NEON", "siteID": "TOOK", "siteType": "Gradient", "sampleType": "Aquatic", "priority": 1, "version": 3, "flightbxID": "D18_TOOL_C1_P1_v3" }, "geometry": { "type": "Polygon", "coordinates": [ [ [ -149.688014408266611, 68.541502028305786 ], [ -149.688027368494858, 68.700916439352966 ], [ -149.267887633698138, 68.701120853206248 ], [ -149.26674831083389, 68.541709296628881 ], [ -149.688014408266611, 68.541502028305786 ] ] ] } }
]
}
