{
"type": "FeatureCollection",
"name": "D18_BARR_R1_P2_v2",
"crs": { "type": "name", "properties": { "name": "urn:ogc:def:crs:OGC:1.3:CRS84" } },
"features": [
{ "type": "Feature", "properties": { "domain": "D18", "domainName": "Tundra", "siteName": "Utqiagvik NEON", "siteID": "BARR", "siteType": "Gradient", "sampleType": "Terrestrial", "priority": 2, "version": 2, "flightbxID": "D18_BARR_R1_P2_v2" }, "geometry": { "type": "Polygon", "coordinates": [ [ [ -156.674651544055621, 71.264677340717753 ], [ -156.842886391827449, 71.264441863146203 ], [ -156.842886391827449, 71.273721760691785 ], [ -156.778165053439153, 71.300847616439341 ], [ -156.674946831493202, 71.332645154677891 ], [ -156.674651544055621, 71.264677340717753 ] ] ] } }
]
}
