{
"type": "FeatureCollection",
"name": "D19_DEJU_R1_P1_v3",
"crs": { "type": "name", "properties": { "name": "urn:ogc:def:crs:OGC:1.3:CRS84" } },
"features": [
{ "type": "Feature", "properties": { "domain": "D19", "domainName": "Taiga", "siteName": "Delta Junction NEON", "siteID": "DEJU", "siteType": "Gradient", "sampleType": "Terrestrial", "priority": 1, "version": 3, "flightbxID": "D19_DEJU_R1_P1_v3" }, "geometry": { "type": "Polygon", "coordinates": [ [ [ -145.800018646744888, 63.775700612335356 ], [ -145.798494733986274, 63.941310674390593 ], [ -145.61598248112935, 63.941234083047959 ], [ -145.616276546379027, 63.775624314173967 ], [ -145.800018646744888, 63.775700612335356 ] ] ] } }
]
}
