{
"type": "FeatureCollection",
"name": "D20_PUUM_C1_P2_v3",
"crs": { "type": "name", "properties": { "name": "urn:ogc:def:crs:OGC:1.3:CRS84" } },
"features": [
{ "type": "Feature", "properties": { "domain": "D20", "domainName": "Pacific Tropical", "siteName": "Pu'u Maka'ala Natural Area Reserve NEON", "siteID": "PUUM", "siteType": "Core", "sampleType": "Terrestrial", "priority": 2, "version": 3, "flightbxID": "D20_PUUM_C1_P2_v3" }, "geometry": { "type": "Polygon", "coordinates": [ [ [ -155.354252339486607, 19.527427668353766 ], [ -155.45460569268127, 19.527427668353766 ], [ -155.45460569268127, 19.594398680591269 ], [ -155.354238005983177, 19.594398680591269 ], [ -155.354252339486607, 19.527427668353766 ] ] ] } }
]
}
